start=new Date('2022-03-28T00:00:00.000Z').valueOf();
sats=[{"LAUNCH_DATE":"2021-11-13","OBJECT_TYPE":"PAYLOAD","FILE":"3377053","ARG_OF_PERICENTER":"41.2530","OBJECT_ID":"2021-104AL","EPOCH":"2022-03-27T22:00:01.999584","RCS_SIZE":"LARGE","NORAD_CAT_ID":"49442","TIME_SYSTEM":"UTC","EPHEMERIS_TYPE":"0","SITE":"AFETR","APOAPSIS":"541.158","MEAN_MOTION_DDOT":"0.0000000000000","BSTAR":"-0.00433960000000","DECAY_DATE":null,"TLE_LINE2":"2 49442  53.2181 205.9775 0002237  41.2530 358.9885 15.08884182  3575","MEAN_ANOMALY":"358.9885","TLE_LINE1":"1 49442U 21104AL  22086.91668981 -.00068780  00000-0 -43396-2 0  9995","SEMIMAJOR_AXIS":"6917.745","CLASSIFICATION_TYPE":"U","MEAN_MOTION_DOT":"-0.00068780","ELEMENT_SET_NO":"999","MEAN_ELEMENT_THEORY":"SGP4","PERIOD":"95.435","PERIAPSIS":"538.063","RA_OF_ASC_NODE":"205.9775","ECCENTRICITY":"0.00022370","REF_FRAME":"TEME","OBJECT_NAME":"STARLINK-3098","REV_AT_EPOCH":"357","MEAN_MOTION":"15.08884182","GP_ID":"199864059","INCLINATION":"53.2181","CENTER_NAME":"EARTH","COUNTRY_CODE":"US"},{"PERIOD":"95.436","MEAN_ELEMENT_THEORY":"SGP4","ELEMENT_SET_NO":"999","MEAN_MOTION_DOT":"-0.00019603","OBJECT_NAME":"STARLINK-3136","REV_AT_EPOCH":"356","RA_OF_ASC_NODE":"205.9650","PERIAPSIS":"538.363","REF_FRAME":"TEME","ECCENTRICITY":"0.00019200","INCLINATION":"53.2175","GP_ID":"199864309","MEAN_MOTION":"15.08857816","CENTER_NAME":"EARTH","COUNTRY_CODE":"US","CLASSIFICATION_TYPE":"U","EPHEMERIS_TYPE":"0","SITE":"AFETR","APOAPSIS":"541.019","MEAN_MOTION_DDOT":"0.0000000000000","SEMIMAJOR_AXIS":"6917.826","TLE_LINE2":"2 49443  53.2175 205.9650 0001920  35.9064 104.3140 15.08857816  3561","MEAN_ANOMALY":"104.3140","TLE_LINE1":"1 49443U 21104AM  22086.91668981 -.00019603  00000-0 -12163-2 0  9994","DECAY_DATE":null,"BSTAR":"-0.00121630000000","OBJECT_TYPE":"PAYLOAD","LAUNCH_DATE":"2021-11-13","ARG_OF_PERICENTER":"35.9064","FILE":"3377053","OBJECT_ID":"2021-104AM","TIME_SYSTEM":"UTC","NORAD_CAT_ID":"49443","EPOCH":"2022-03-27T22:00:01.999584","RCS_SIZE":"LARGE"},{"CLASSIFICATION_TYPE":"U","COUNTRY_CODE":"US","CENTER_NAME":"EARTH","MEAN_MOTION":"15.08875487","GP_ID":"199865560","INCLINATION":"53.2176","RA_OF_ASC_NODE":"205.9710","PERIAPSIS":"538.292","ECCENTRICITY":"0.00019440","REF_FRAME":"TEME","REV_AT_EPOCH":"357","OBJECT_NAME":"STARLINK-3126","MEAN_MOTION_DOT":"-0.00055126","ELEMENT_SET_NO":"999","MEAN_ELEMENT_THEORY":"SGP4","PERIOD":"95.435","RCS_SIZE":"LARGE","EPOCH":"2022-03-27T22:00:01.999584","NORAD_CAT_ID":"49444","TIME_SYSTEM":"UTC","OBJECT_ID":"2021-104AN","FILE":"3377053","ARG_OF_PERICENTER":"36.7372","LAUNCH_DATE":"2021-11-13","OBJECT_TYPE":"PAYLOAD","BSTAR":"-0.00346880000000","DECAY_DATE":null,"TLE_LINE2":"2 49444  53.2176 205.9710 0001944  36.7372  23.5114 15.08875487  3575","TLE_LINE1":"1 49444U 21104AN  22086.91668981 -.00055126  00000-0 -34688-2 0  9991","MEAN_ANOMALY":"23.5114","SEMIMAJOR_AXIS":"6917.772","MEAN_MOTION_DDOT":"0.0000000000000","SITE":"AFETR","APOAPSIS":"540.982","EPHEMERIS_TYPE":"0"},{"BSTAR":"0.00027434000000","DECAY_DATE":null,"TLE_LINE2":"2 49445  53.2157 215.9855 0002040  34.3662 310.8367 15.08845709  3565","TLE_LINE1":"1 49445U 21104AP  22086.91668981  .00004081  00000-0  27434-3 0  9996","MEAN_ANOMALY":"310.8367","SEMIMAJOR_AXIS":"6917.863","MEAN_MOTION_DDOT":"0.0000000000000","SITE":"AFETR","APOAPSIS":"541.139","EPHEMERIS_TYPE":"0","RCS_SIZE":"LARGE","EPOCH":"2022-03-27T22:00:01.999584","NORAD_CAT_ID":"49445","TIME_SYSTEM":"UTC","OBJECT_ID":"2021-104AP","ARG_OF_PERICENTER":"34.3662","FILE":"3377053","LAUNCH_DATE":"2021-11-13","OBJECT_TYPE":"PAYLOAD","CENTER_NAME":"EARTH","COUNTRY_CODE":"US","MEAN_MOTION":"15.08845709","GP_ID":"199865797","INCLINATION":"53.2157","PERIAPSIS":"538.317","REF_FRAME":"TEME","RA_OF_ASC_NODE":"215.9855","ECCENTRICITY":"0.00020400","REV_AT_EPOCH":"356","OBJECT_NAME":"STARLINK-3122","MEAN_MOTION_DOT":"0.00004081","ELEMENT_SET_NO":"999","PERIOD":"95.437","MEAN_ELEMENT_THEORY":"SGP4","CLASSIFICATION_TYPE":"U"},{"OBJECT_TYPE":"PAYLOAD","LAUNCH_DATE":"2021-11-13","FILE":"3377053","ARG_OF_PERICENTER":"31.5012","OBJECT_ID":"2021-104AQ","NORAD_CAT_ID":"49446","TIME_SYSTEM":"UTC","RCS_SIZE":"LARGE","EPOCH":"2022-03-27T22:00:01.999584","EPHEMERIS_TYPE":"0","SITE":"AFETR","APOAPSIS":"541.005","MEAN_MOTION_DDOT":"0.0000000000000","TLE_LINE2":"2 49446  53.2174 205.9698 0001989  31.5012  48.6726 15.08878103  3578","TLE_LINE1":"1 49446U 21104AQ  22086.91668981 -.00026176  00000-0 -16308-2 0  9995","MEAN_ANOMALY":"48.6726","SEMIMAJOR_AXIS":"6917.764","BSTAR":"-0.00163080000000","DECAY_DATE":null,"CLASSIFICATION_TYPE":"U","ELEMENT_SET_NO":"999","PERIOD":"95.435","MEAN_ELEMENT_THEORY":"SGP4","MEAN_MOTION_DOT":"-0.00026176","RA_OF_ASC_NODE":"205.9698","PERIAPSIS":"538.253","ECCENTRICITY":"0.00019890","REF_FRAME":"TEME","OBJECT_NAME":"STARLINK-3099","REV_AT_EPOCH":"357","INCLINATION":"53.2174","MEAN_MOTION":"15.08878103","GP_ID":"199864559","CENTER_NAME":"EARTH","COUNTRY_CODE":"US"},{"CLASSIFICATION_TYPE":"U","REV_AT_EPOCH":"357","OBJECT_NAME":"STARLINK-3115","PERIAPSIS":"538.265","RA_OF_ASC_NODE":"215.9893","ECCENTRICITY":"0.00020460","REF_FRAME":"TEME","MEAN_MOTION_DOT":"-0.00002397","MEAN_ELEMENT_THEORY":"SGP4","PERIOD":"95.436","ELEMENT_SET_NO":"999","COUNTRY_CODE":"US","CENTER_NAME":"EARTH","GP_ID":"199864809","MEAN_MOTION":"15.08861412","INCLINATION":"53.2173","ARG_OF_PERICENTER":"33.7875","FILE":"3377053","LAUNCH_DATE":"2021-11-13","OBJECT_TYPE":"PAYLOAD","RCS_SIZE":"LARGE","EPOCH":"2022-03-27T22:00:01.999584","TIME_SYSTEM":"UTC","NORAD_CAT_ID":"49447","OBJECT_ID":"2021-104AR","SITE":"AFETR","APOAPSIS":"541.095","EPHEMERIS_TYPE":"0","DECAY_DATE":null,"BSTAR":"-0.00013243000000","SEMIMAJOR_AXIS":"6917.815","TLE_LINE1":"1 49447U 21104AR  22086.91668981 -.00002397  00000-0 -13243-3 0  9991","TLE_LINE2":"2 49447  53.2173 215.9893 0002046  33.7875 351.4071 15.08861412  3575","MEAN_ANOMALY":"351.4071","MEAN_MOTION_DDOT":"0.0000000000000"},{"ARG_OF_PERICENTER":"37.9316","FILE":"3377053","LAUNCH_DATE":"2021-11-13","OBJECT_TYPE":"PAYLOAD","RCS_SIZE":"LARGE","EPOCH":"2022-03-27T22:00:01.999584","NORAD_CAT_ID":"49448","TIME_SYSTEM":"UTC","OBJECT_ID":"2021-104AS","SITE":"AFETR","APOAPSIS":"541.163","EPHEMERIS_TYPE":"0","BSTAR":"-0.00001135900000","DECAY_DATE":null,"TLE_LINE2":"2 49448  53.2161 215.9874 0002047  37.9316 287.2959 15.08839479  3567","MEAN_ANOMALY":"287.2959","TLE_LINE1":"1 49448U 21104AS  22086.91668981 -.00000469  00000-0 -11359-4 0  9997","SEMIMAJOR_AXIS":"6917.882","MEAN_MOTION_DDOT":"0.0000000000000","CLASSIFICATION_TYPE":"U","ECCENTRICITY":"0.00020470","PERIAPSIS":"538.331","RA_OF_ASC_NODE":"215.9874","REF_FRAME":"TEME","OBJECT_NAME":"STARLINK-3097","REV_AT_EPOCH":"356","MEAN_MOTION_DOT":"-0.00000469","ELEMENT_SET_NO":"999","PERIOD":"95.438","MEAN_ELEMENT_THEORY":"SGP4","COUNTRY_CODE":"US","CENTER_NAME":"EARTH","MEAN_MOTION":"15.08839479","GP_ID":"199865061","INCLINATION":"53.2161"},{"COUNTRY_CODE":"US","CENTER_NAME":"EARTH","INCLINATION":"53.2153","MEAN_MOTION":"15.08838055","GP_ID":"199865298","RA_OF_ASC_NODE":"215.9670","PERIAPSIS":"538.412","ECCENTRICITY":"0.00019360","REF_FRAME":"TEME","OBJECT_NAME":"STARLINK-3137","REV_AT_EPOCH":"357","ELEMENT_SET_NO":"999","MEAN_ELEMENT_THEORY":"SGP4","PERIOD":"95.438","MEAN_MOTION_DOT":"0.00010200","CLASSIFICATION_TYPE":"U","MEAN_ANOMALY":"7.4774","TLE_LINE2":"2 49449  53.2153 215.9670 0001936  37.6979   7.4774 15.08838055  3578","TLE_LINE1":"1 49449U 21104AT  22086.91668981  .00010200  00000-0  65808-3 0  9997","SEMIMAJOR_AXIS":"6917.886","BSTAR":"0.00065808000000","DECAY_DATE":null,"MEAN_MOTION_DDOT":"0.0000000000000","SITE":"AFETR","APOAPSIS":"541.091","EPHEMERIS_TYPE":"0","NORAD_CAT_ID":"49449","TIME_SYSTEM":"UTC","EPOCH":"2022-03-27T22:00:01.999584","RCS_SIZE":"LARGE","OBJECT_ID":"2021-104AT","ARG_OF_PERICENTER":"37.6979","FILE":"3377053","OBJECT_TYPE":"PAYLOAD","LAUNCH_DATE":"2021-11-13"},{"CLASSIFICATION_TYPE":"U","ECCENTRICITY":"0.00019290","PERIAPSIS":"538.329","RA_OF_ASC_NODE":"215.9909","REF_FRAME":"TEME","REV_AT_EPOCH":"357","OBJECT_NAME":"STARLINK-3127","MEAN_MOTION_DOT":"-0.00036355","ELEMENT_SET_NO":"999","PERIOD":"95.436","MEAN_ELEMENT_THEORY":"SGP4","COUNTRY_CODE":"US","CENTER_NAME":"EARTH","MEAN_MOTION":"15.08866711","GP_ID":"199864060","INCLINATION":"53.2175","FILE":"3377053","ARG_OF_PERICENTER":"36.3307","LAUNCH_DATE":"2021-11-13","OBJECT_TYPE":"PAYLOAD","EPOCH":"2022-03-27T22:00:01.999584","RCS_SIZE":"LARGE","NORAD_CAT_ID":"49450","TIME_SYSTEM":"UTC","OBJECT_ID":"2021-104AU","SITE":"AFETR","APOAPSIS":"540.998","EPHEMERIS_TYPE":"0","BSTAR":"-0.00227600000000","DECAY_DATE":null,"TLE_LINE1":"1 49450U 21104AU  22086.91668981 -.00036355  00000-0 -22760-2 0  9999","TLE_LINE2":"2 49450  53.2175 215.9909 0001929  36.3307 328.8817 15.08866711  3570","MEAN_ANOMALY":"328.8817","SEMIMAJOR_AXIS":"6917.799","MEAN_MOTION_DDOT":"0.0000000000000"},{"CENTER_NAME":"EARTH","COUNTRY_CODE":"US","GP_ID":"199864310","MEAN_MOTION":"15.08846632","INCLINATION":"53.2165","OBJECT_NAME":"STARLINK-3125","REV_AT_EPOCH":"357","RA_OF_ASC_NODE":"215.9660","PERIAPSIS":"538.303","ECCENTRICITY":"0.00020560","REF_FRAME":"TEME","MEAN_MOTION_DOT":"-0.00004313","PERIOD":"95.437","MEAN_ELEMENT_THEORY":"SGP4","ELEMENT_SET_NO":"999","CLASSIFICATION_TYPE":"U","DECAY_DATE":null,"BSTAR":"-0.00025299000000","SEMIMAJOR_AXIS":"6917.860","MEAN_ANOMALY":"31.7435","TLE_LINE2":"2 49451  53.2165 215.9660 0002056  33.4865  31.7435 15.08846632  3579","TLE_LINE1":"1 49451U 21104AV  22086.91668981 -.00004313  00000-0 -25299-3 0  9990","MEAN_MOTION_DDOT":"0.0000000000000","APOAPSIS":"541.147","SITE":"AFETR","EPHEMERIS_TYPE":"0","RCS_SIZE":"LARGE","EPOCH":"2022-03-27T22:00:01.999584","TIME_SYSTEM":"UTC","NORAD_CAT_ID":"49451","OBJECT_ID":"2021-104AV","ARG_OF_PERICENTER":"33.4865","FILE":"3377053","LAUNCH_DATE":"2021-11-13","OBJECT_TYPE":"PAYLOAD"}];
